EUTELSAT 8 WEST B       
1 40875U 15039B   25223.89568868 -.00000064  00000+0  00000+0 0  9993
2 40875   0.0656 356.9749 0003629 143.6529 134.4063  1.00271943 36553
EUTELSAT 9B             
1 41310U 16005A   25223.89906869  .00000063  00000+0  00000+0 0  9997
2 41310   0.0260  64.3217 0001477  98.7445 130.1795  1.00270700 35010
EUTELSAT 65 WEST A      
1 41382U 16014A   25223.88433530 -.00000275  00000+0  00000+0 0  9991
2 41382   0.0544  27.7026 0002174 115.9597  70.0760  1.00269352 34430
EUTELSAT 117 WEST B     
1 41589U 16038B   25224.37128259 -.00000010  00000+0  00000+0 0  9997
2 41589   0.0112 242.1346 0000212 179.9465 275.6355  1.00270754 33602
EUTELSAT 172B           
1 42741U 17029B   25224.18586468 -.00000005  00000+0  00000+0 0  9992
2 42741   0.0204 170.6637 0000342 268.5795 120.5504  1.00270629 30611
EUTELSAT 7C             
1 44334U 19034B   25223.89872203  .00000049  00000+0  00000+0 0  9999
2 44334   0.0742 188.9768 0003325 298.7642 163.4063  1.00271049  3731
EUTELSAT 5 WEST B       
1 44624U 19067A   25224.18180457 -.00000041  00000+0  00000+0 0  9996
2 44624   0.1153 299.6179 0003116 204.2403 237.4464  1.00270514 21330
EUTELSAT KONNECT        
1 45027U 20005B   25223.89872203  .00000050  00000+0  00000+0 0  9991
2 45027   0.0591  97.1847 0001434  87.3576 106.7811  1.00268904 21220
